[{"OBJECT_NAME":"NEXSAT-1","OBJECT_ID":"2024-024E","EPOCH":"2026-03-09T22:47:24.778176","MEAN_MOTION":15.32166372,"ECCENTRICITY":0.00099795,"INCLINATION":97.3124,"RA_OF_ASC_NODE":144.1918,"ARG_OF_PERICENTER":108.5709,"MEAN_ANOMALY":251.6617,"EPHEMERIS_TYPE":0,"CLASSIFICATION_TYPE":"U","NORAD_CAT_ID":58921,"ELEMENT_SET_NO":999,"REV_AT_EPOCH":11669,"BSTAR":0.00031433612,"MEAN_MOTION_DOT":9.702e-5,"MEAN_MOTION_DDOT":0},{"OBJECT_NAME":"STARLINK-32501","OBJECT_ID":"2024-204S","EPOCH":"2026-03-09T10:09:35.483904","MEAN_MOTION":15.30189185,"ECCENTRICITY":0.00011604,"INCLINATION":53.1613,"RA_OF_ASC_NODE":128.5371,"ARG_OF_PERICENTER":85.412,"MEAN_ANOMALY":274.7014,"EPHEMERIS_TYPE":0,"CLASSIFICATION_TYPE":"U","NORAD_CAT_ID":61890,"ELEMENT_SET_NO":999,"REV_AT_EPOCH":7505,"BSTAR":3.0193009e-5,"MEAN_MOTION_DOT":5.35e-6,"MEAN_MOTION_DDOT":0}]
